[{"OBJECT_NAME":"IRIDIUM 120","OBJECT_ID":"2017-039C","EPOCH":"2026-03-09T21:12:27.197568","MEAN_MOTION":14.34217759,"ECCENTRICITY":0.00021079,"INCLINATION":86.4016,"RA_OF_ASC_NODE":3.4651,"ARG_OF_PERICENTER":89.0553,"MEAN_ANOMALY":271.0885,"EPHEMERIS_TYPE":0,"CLASSIFICATION_TYPE":"U","NORAD_CAT_ID":42805,"ELEMENT_SET_NO":999,"REV_AT_EPOCH":45694,"BSTAR":1.4790436e-5,"MEAN_MOTION_DOT":6.1e-7,"MEAN_MOTION_DDOT":0},{"OBJECT_NAME":"FENGYUN 1C DEB","OBJECT_ID":"1999-025DDP","EPOCH":"2026-03-06T12:15:28.818144","MEAN_MOTION":14.17888837,"ECCENTRICITY":0.01348069,"INCLINATION":98.614,"RA_OF_ASC_NODE":174.2401,"ARG_OF_PERICENTER":186.259,"MEAN_ANOMALY":173.6907,"EPHEMERIS_TYPE":0,"CLASSIFICATION_TYPE":"U","NORAD_CAT_ID":33630,"ELEMENT_SET_NO":999,"REV_AT_EPOCH":65598,"BSTAR":0.00064645978,"MEAN_MOTION_DOT":1.403e-5,"MEAN_MOTION_DDOT":0}]
